STARLINK-1997
1 17592C 21009AW  21326.12967260  .00008077  00000-0  54106-3 0  3261
2 17592  53.0553 243.1697 0001903  69.3897 259.0030 15.06399074    11
